GSAT0216 (GALILEO 20)   
1 43056U 17079B   26191.18336701  .00000090  00000+0  00000+0 0  9997
2 43056  55.0690 220.8736 0004821 276.9654  83.0589  1.70474478 53392
GSAT0217 (GALILEO 21)   
1 43057U 17079C   26192.57733622  .00000088  00000+0  00000+0 0  9992
2 43057  55.0671 220.8331 0004474 291.1332  68.8993  1.70473980 53408
GSAT0218 (GALILEO 22)   
1 43058U 17079D   26192.21083116  .00000089  00000+0  00000+0 0  9991
2 43058  55.0671 220.8406 0005338 274.4477  85.5718  1.70474393 53428
BEIDOU-3 M7             
1 43107U 18003A   26191.43983110 -.00000068  00000+0  00000+0 0  9998
2 43107  54.3060 301.5047 0004517  98.3583 261.7116  1.86228296 57783
BEIDOU-3 M8             
1 43108U 18003B   26192.45814380 -.00000067  00000+0  00000+0 0  9993
2 43108  54.2979 301.4505 0003008 258.7050 101.2808  1.86231135 57811
BEIDOU-3 M4             
1 43207U 18018A   26192.36436679 -.00000044  00000+0  00000+0 0  9995
2 43207  56.6718  62.3521 0007463  27.7505 332.3554  1.86231098 57191
BEIDOU-3 M3             
1 43208U 18018B   26192.96782749 -.00000042  00000+0  00000+0 0  9992
2 43208  56.6719  62.3360 0007637 347.3211  12.7279  1.86230755 57206
BEIDOU-3 M9             
1 43245U 18029A   26192.11186513 -.00000063  00000+0  00000+0 0  9992
2 43245  54.1706 299.1126 0001163 180.6370 179.3856  1.86228202 56347
BEIDOU-3 M10            
1 43246U 18029B   26192.04609622 -.00000064  00000+0  00000+0 0  9997
2 43246  54.1686 299.1412 0003324  36.7442 323.3010  1.86229381 56325
IRNSS-1I                
1 43286U 18035A   26187.83739038  .00000079  00000+0  00000+0 0  9999
2 43286  28.7973  73.8917 0018087 180.4002  27.0525  1.00279237 30279
COSMOS 2527 [GLONASS-M] 
1 43508U 18053A   26192.48632575 -.00000019  00000+0  00000+0 0  9996
2 43508  65.5905  73.0975 0006594 230.9914 129.0146  2.13102184 62794
BEIDOU-2 IGSO-7         
1 43539U 18057A   26182.89122331 -.00000033  00000+0  00000+0 0  9998
2 43539  55.1981 162.9292 0104946 237.8611 308.6338  1.00246939 29273
GSAT0221 (GALILEO 25)   
1 43564U 18060A   26190.94173446 -.00000079  00000+0  00000+0 0  9998
2 43564  57.1621 341.1668 0002608 288.2741  71.6944  1.70476012 49555
GSAT0222 (GALILEO 26)   
1 43565U 18060B   26192.33458396 -.00000085  00000+0  00000+0 0  9991
2 43565  57.1644 341.1329 0002691 235.7662 124.2009  1.70475791 49624
GSAT0219 (GALILEO 23)   
1 43566U 18060C   26190.20911964 -.00000076  00000+0  00000+0 0  9991
2 43566  57.1645 341.1918 0001791 303.0651  56.9164  1.70476041 49562
GSAT0220 (GALILEO 24)   
1 43567U 18060D   26191.60328123 -.00000081  00000+0  00000+0 0  9992
2 43567  57.1637 341.1546 0002117 293.2596  66.7130  1.70475685 49578
BEIDOU-3 M5             
1 43581U 18062A   26192.27005743  .00000095  00000+0  00000+0 0  9998
2 43581  54.0866 181.4855 0005674 292.2575  67.6835  1.86228429 54082
BEIDOU-3 M6             
1 43582U 18062B   26192.67059231  .00000089  00000+0  00000+0 0  9997
2 43582  54.0861 181.4610 0005263   9.9917 350.0173  1.86227725 54097
BEIDOU-3 M12            
1 43602U 18067A   26192.60902484  .00000088  00000+0  00000+0 0  9994
2 43602  54.1816 180.2122 0007916  30.3589 329.6835  1.86227688 53573
BEIDOU-3 M11            
1 43603U 18067B   26192.74415543  .00000086  00000+0  00000+0 0  9993
2 43603  54.1790 180.1713 0004600  13.4085 346.5992  1.86227132 53600
BEIDOU-3 M13            
1 43622U 18072A   26192.16191278 -.00000044  00000+0  00000+0 0  9997
2 43622  56.6449  61.8695 0006304 333.0980  26.9349  1.86231308 53101
BEIDOU-3 M14            
1 43623U 18072B   26192.02734880 -.00000045  00000+0  00000+0 0  9996
2 43623  56.6470  61.8674 0005467  11.2080 348.8695  1.86231184 53098
BEIDOU-3 M16            
1 43647U 18078A   26190.03453737 -.00000064  00000+0  00000+0 0  9997
2 43647  54.0687 299.2200 0006721  40.1381 319.9343  1.86232218 52566
BEIDOU-3 M15            
1 43648U 18078B   26192.84854501 -.00000063  00000+0  00000+0 0  9992
2 43648  54.0617 299.1213 0003622  58.6259 301.4334  1.86232290 52632
BEIDOU-3 G1             
1 43683U 18085A   26192.73915603 -.00000107  00000+0  00000+0 0  9997
2 43683   2.9269  96.7211 0008090 355.5910 263.3755  1.00272743 28305
COSMOS 2529 [GLONASS-M] 
1 43687U 18086A   26192.11333993  .00000113  00000+0  00000+0 0  9996
2 43687  64.2969 191.7864 0012111 256.4030 103.4921  2.13101972 59794
BEIDOU-3 M17            
1 43706U 18093A   26192.74097604  .00000087  00000+0  00000+0 0  9991
2 43706  54.1700 181.4634 0010132 293.7587 245.5336  1.86228238 51996
BEIDOU-3 M18            
1 43707U 18093B   26192.33705928  .00000094  00000+0  00000+0 0  9990
2 43707  54.1711 181.4695 0008027 322.2637  37.6808  1.86226279 51986
NAVSTAR 77 (USA 289)    
1 43873U 18109A   26192.67950449 -.00000036  00000+0  00000+0 0  9996
2 43873  55.6961  91.2207 0038524 197.2816 331.0509  2.00562572 55567
BEIDOU-3 IGSO-1         
1 44204U 19023A   26192.58767623 -.00000206  00000+0  00000+0 0  9990
2 44204  58.7293  37.3991 0025626 224.0790 358.6331  1.00284023  7452
BEIDOU-2 G8             
1 44231U 19027A   26192.87868485 -.00000245  00000+0  00000+0 0  9997
2 44231   1.7169  74.5075 0009769 282.6558  33.4593  1.00272787 26329
